{
  "type": "FeatureCollection",
  "metadata": {
    "admin_level": "Union Council",
    "tehsil": "Nishtar",
    "district": "Lahore",
    "source": "User's HelloTracks account (live.hellotracks.com/zones) -- a private org tenant, not public GIS. Confirmed by the account owner: Tehsil Nishtar contains exactly these 14 UCs, no others.",
    "method": "Each UC's zone polygon was viewed individually on HelloTracks' real Mapbox/OSM basemap via screenshots the user provided. Positions here are a single representative anchor point per UC, matched against this repo's already-georeferenced mouza coordinates where a clear name match exists, refined further using landmarks shared between adjacent UCs' screenshots (e.g. 'Rajabole' appears in both UC-244 and UC-254's views). These anchors are also the generator points for the Voronoi tessellation in ucs_nishtar_tentative.geojson.",
    "caveat": "Points only, not boundaries. 'moderate' confidence = anchored to a real matched place name; 'low'/'very low' = no name match or no pixel access at all, positioned by relative adjacency only. For real UC boundary polygons, the reliable path is exporting the zones' GeoJSON from HelloTracks itself (e.g. via its Network tab) rather than screenshot tracing.",
    "retrieved": "2026-09-21",
    "count": 14
  },
  "features": [
    {
      "type": "Feature",
      "properties": {
        "uc": "UC-242",
        "confidence": "moderate",
        "note": "anchored to 'Atari Saroba' label visible in the zone",
        "status": "estimated"
      },
      "geometry": {
        "type": "Point",
        "coordinates": [
          74.36933,
          31.4306
        ]
      }
    },
    {
      "type": "Feature",
      "properties": {
        "uc": "UC-243",
        "confidence": "low",
        "note": "no mouza-name match; refined using shared 'Nishter Colony' label with UC-242/UC-254's screenshots",
        "status": "estimated"
      },
      "geometry": {
        "type": "Point",
        "coordinates": [
          74.4,
          31.42
        ]
      }
    },
    {
      "type": "Feature",
      "properties": {
        "uc": "UC-244",
        "confidence": "moderate",
        "note": "anchored to 'Gajju Matah' label visible in the zone",
        "status": "estimated"
      },
      "geometry": {
        "type": "Point",
        "coordinates": [
          74.35004,
          31.4021
        ]
      }
    },
    {
      "type": "Feature",
      "properties": {
        "uc": "UC-245",
        "confidence": "moderate",
        "note": "anchored to 'Ghankar' label visible in the zone",
        "status": "estimated"
      },
      "geometry": {
        "type": "Point",
        "coordinates": [
          74.39338,
          31.3904
        ]
      }
    },
    {
      "type": "Feature",
      "properties": {
        "uc": "UC-246",
        "confidence": "moderate",
        "note": "anchored to 'Dulu Khurd'/'Dulu Kalan' labels visible in the zone",
        "status": "estimated"
      },
      "geometry": {
        "type": "Point",
        "coordinates": [
          74.3716,
          31.40484
        ]
      }
    },
    {
      "type": "Feature",
      "properties": {
        "uc": "UC-247",
        "confidence": "moderate",
        "note": "anchored to 'Kahna Nau' label visible in the zone",
        "status": "estimated"
      },
      "geometry": {
        "type": "Point",
        "coordinates": [
          74.38089,
          31.36832
        ]
      }
    },
    {
      "type": "Feature",
      "properties": {
        "uc": "UC-248",
        "confidence": "moderate",
        "note": "anchored to 'Kahna Purana' label (= Kahna Kohna) visible in the zone",
        "status": "estimated"
      },
      "geometry": {
        "type": "Point",
        "coordinates": [
          74.35902,
          31.35364
        ]
      }
    },
    {
      "type": "Feature",
      "properties": {
        "uc": "UC-249",
        "confidence": "low",
        "note": "no mouza-name match; refined using 'Kamahan-Lidher Road' label shared with the Kamahan area",
        "status": "estimated"
      },
      "geometry": {
        "type": "Point",
        "coordinates": [
          74.42,
          31.46
        ]
      }
    },
    {
      "type": "Feature",
      "properties": {
        "uc": "UC-250",
        "confidence": "moderate",
        "note": "anchored to 'Kacha'/'Waraich' labels visible in the zone",
        "status": "estimated"
      },
      "geometry": {
        "type": "Point",
        "coordinates": [
          74.317,
          31.383
        ]
      }
    },
    {
      "type": "Feature",
      "properties": {
        "uc": "UC-251",
        "confidence": "moderate",
        "note": "anchored to 'Kacha' label visible in the zone, Valencia/DHA Rahbar side",
        "status": "estimated"
      },
      "geometry": {
        "type": "Point",
        "coordinates": [
          74.3,
          31.41
        ]
      }
    },
    {
      "type": "Feature",
      "properties": {
        "uc": "UC-252",
        "confidence": "moderate",
        "note": "anchored to 'Ladheke'/'Pandoke' labels visible in the zone",
        "status": "estimated"
      },
      "geometry": {
        "type": "Point",
        "coordinates": [
          74.366,
          31.288
        ]
      }
    },
    {
      "type": "Feature",
      "properties": {
        "uc": "UC-253",
        "confidence": "moderate",
        "note": "anchored to 'Mehdi Pur'/'Saraich'/'Atto Asal' labels visible in the zone",
        "status": "estimated"
      },
      "geometry": {
        "type": "Point",
        "coordinates": [
          74.42,
          31.32
        ]
      }
    },
    {
      "type": "Feature",
      "properties": {
        "uc": "UC-254",
        "confidence": "very low",
        "note": "no pixel access to this screenshot (pre-file-save); refined using 'Rajabole' label shared with UC-244/UC-245's screenshots",
        "status": "estimated"
      },
      "geometry": {
        "type": "Point",
        "coordinates": [
          74.42,
          31.415
        ]
      }
    },
    {
      "type": "Feature",
      "properties": {
        "uc": "UC-257",
        "confidence": "very low",
        "note": "no pixel access to this screenshot (pre-file-save); refined using 'DHA Phase XI Rahbar' label shared with UC-251's screenshot",
        "status": "estimated"
      },
      "geometry": {
        "type": "Point",
        "coordinates": [
          74.265,
          31.4
        ]
      }
    }
  ]
}